{
"type": "FeatureCollection",
"name": "chicago",
"crs": { "type": "name", "properties": { "name": "urn:ogc:def:crs:OGC:1.3:CRS84" } },
"features": [
{ "type": "Feature", "properties": { "key": "chicago-1" }, "geometry": { "type": "Polygon", "coordinates": [ [ [ -87.65455590025104, 41.99816614970252 ], [ -87.676837404514743, 41.997959318166949 ], [ -87.681930695390321, 42.009054945570867 ], [ -87.684135487427454, 42.015315064682433 ], [ -87.6846530946559, 42.0194847726953 ], [ -87.673117705171023, 42.019385592586353 ], [ -87.677056060688997, 42.023038586147585 ], [ -87.665126389521475, 42.022947570697568 ], [ -87.664009496917927, 42.021332466432931 ], [ -87.663980350928739, 42.019075978041869 ], [ -87.661014389668367, 42.012025939406243 ], [ -87.656459568148421, 42.007421872245992 ], [ -87.655062258318381, 42.006899443258362 ], [ -87.657394088481837, 42.006279486897199 ], [ -87.657421456193191, 42.005616213845698 ], [ -87.656712498493306, 42.004296085360224 ], [ -87.65728686741457, 42.004212209370564 ], [ -87.656897431953567, 42.002599571976567 ], [ -87.65455590025104, 41.99816614970252 ] ] ] } },
{ "type": "Feature", "properties": { "key": "chicago-2" }, "geometry": { "type": "Polygon", "coordinates": [ [ [ -87.6846530946559, 42.0194847726953 ], [ -87.684135487427454, 42.015315064682433 ], [ -87.681760640402459, 42.008650036336071 ], [ -87.676837404514743, 41.997959318166949 ], [ -87.675012500289554, 41.99799274710572 ], [ -87.674849881717208, 41.99076157237122 ], [ -87.689672553792747, 41.9905000023141 ], [ -87.689448333154658, 41.983167685914331 ], [ -87.706901774389678, 41.983080466543015 ], [ -87.710668846764349, 41.99729359212045 ], [ -87.709453646260116, 41.997387551455056 ], [ -87.709014470623714, 42.019131106879684 ], [ -87.6846530946559, 42.0194847726953 ] ] ] } },
{ "type": "Feature", "properties": { "key": "chicago-3" }, "geometry": { "type": "Polygon", "coordinates": [ [ [ -87.641024302132919, 41.954802805532566 ], [ -87.662249961210307, 41.954378104457881 ], [ -87.665953562815019, 41.961634626348953 ], [ -87.673976657719933, 41.961525434932703 ], [ -87.674407567803698, 41.976103404416754 ], [ -87.651260401704135, 41.976459969940521 ], [ -87.646144959410364, 41.977836935018694 ], [ -87.646661895801429, 41.977443381603223 ], [ -87.646143128761693, 41.972855379973382 ], [ -87.642627500814527, 41.968354236002384 ], [ -87.64296523771587, 41.968055366267869 ], [ -87.637426327710941, 41.966035340607682 ], [ -87.631994761433674, 41.965068381286912 ], [ -87.631841422780198, 41.966694755992485 ], [ -87.630961738163364, 41.968420749695873 ], [ -87.631969354920699, 41.968541205936106 ], [ -87.631055482347392, 41.968754304291821 ], [ -87.630876416319083, 41.968371654746868 ], [ -87.631919627056178, 41.96577019091955 ], [ -87.63099581784985, 41.9632315472128 ], [ -87.631454237164604, 41.96245294279678 ], [ -87.634223529910983, 41.961383852778567 ], [ -87.636639333820924, 41.959540524485533 ], [ -87.640098750607834, 41.95967028431329 ], [ -87.640300326211417, 41.959192186742833 ], [ -87.64073507922582, 41.960786320474 ], [ -87.637319050731023, 41.960493237125171 ], [ -87.63582978953562, 41.961384490159105 ], [ -87.635407479896841, 41.962485972312514 ], [ -87.63684601814461, 41.962875658663449 ], [ -87.642123077607351, 41.961832454559108 ], [ -87.641613093317147, 41.959396452294612 ], [ -87.641021865507327, 41.959351121476715 ], [ -87.641629130347425, 41.959331154758047 ], [ -87.641745141048091, 41.958364301611716 ], [ -87.641024302132919, 41.954802805532566 ] ] ] } },
{ "type": "Feature", "properties": { "key": "chicago-4" }, "geometry": { "type": "Polygon", "coordinates": [ [ [ -87.674705454839483, 41.990763470996946 ], [ -87.673976657719933, 41.961525434932703 ], [ -87.694745772548757, 41.961273425776355 ], [ -87.695784007825125, 41.963369128659934 ], [ -87.703218801604407, 41.971240932291948 ], [ -87.706901774389678, 41.983080466543015 ], [ -87.689448333154658, 41.983167685914331 ], [ -87.689672553792747, 41.9905000023141 ], [ -87.674705454839483, 41.990763470996946 ] ] ] } },
{ "type": "Feature", "properties": { "key": "chicago-5" }, "geometry": { "type": "Polygon", "coordinates": [ [ [ -87.673364154093363, 41.932342744653504 ], [ -87.682840159720655, 41.932228712055448 ], [ -87.683480406092002, 41.933424737091912 ], [ -87.68549344248423, 41.933797801269584 ], [ -87.68848742049164, 41.936428305754227 ], [ -87.690149256850205, 41.936698712186555 ], [ -87.691486305777545, 41.938791801119528 ], [ -87.693633107744503, 41.940255062246358 ], [ -87.69539566057874, 41.943096407726671 ], [ -87.696863559833048, 41.950006256630616 ], [ -87.694554687343668, 41.953922296099712 ], [ -87.694745772548757, 41.961273425776355 ], [ -87.673976657719933, 41.961525434932703 ], [ -87.673364154093363, 41.932342744653504 ] ] ] } },
{ "type": "Feature", "properties": { "key": "chicago-6" }, "geometry": { "type": "Polygon", "coordinates": [ [ [ -87.641024302132919, 41.954802805532566 ], [ -87.63754603248583, 41.94743333845301 ], [ -87.633027594607569, 41.942334871124217 ], [ -87.633714905107354, 41.942222388602474 ], [ -87.634492776783958, 41.943191253268843 ], [ -87.635921889441406, 41.942979006410496 ], [ -87.637363215235624, 41.945793188855198 ], [ -87.640021449607104, 41.946396753623624 ], [ -87.642134341260942, 41.947857668551272 ], [ -87.640048750808845, 41.945946538075447 ], [ -87.640459541426267, 41.944831903464369 ], [ -87.637115499943349, 41.939826343078309 ], [ -87.636950539500987, 41.940258776616716 ], [ -87.636815766793731, 41.939758306965359 ], [ -87.635468683677104, 41.93973223531188 ], [ -87.634452755318634, 41.941861154079263 ], [ -87.633999618399955, 41.941624128482133 ], [ -87.632100560559579, 41.935840420835127 ], [ -87.630442809476548, 41.933666139171386 ], [ -87.630663797338741, 41.932534404217883 ], [ -87.630730612563013, 41.93306326772705 ], [ -87.631599756178773, 41.932579206300829 ], [ -87.633998457033826, 41.933014722211226 ], [ -87.673364154093363, 41.932342744653504 ], [ -87.673976657719933, 41.961525434932703 ], [ -87.665953562815019, 41.961634626348953 ], [ -87.662249961210307, 41.954378104457881 ], [ -87.641024302132919, 41.954802805532566 ] ] ] } },
{ "type": "Feature", "properties": { "key": "chicago-7" }, "geometry": { "type": "Polygon", "coordinates": [ [ [ -87.633998457033826, 41.933014722211226 ], [ -87.631065082825117, 41.932587792849105 ], [ -87.630687067351786, 41.931868929323464 ], [ -87.630910266179313, 41.929321562232218 ], [ -87.629597503965428, 41.92657983377363 ], [ -87.630274968797124, 41.925747627136431 ], [ -87.629937802645529, 41.923547467837615 ], [ -87.629003199722604, 41.922749975564663 ], [ -87.628336306654418, 41.923073954909832 ], [ -87.629485833441478, 41.922440505316324 ], [ -87.628535767835757, 41.921033230501799 ], [ -87.627703194303578, 41.921361978682633 ], [ -87.628933878887338, 41.920820773056732 ], [ -87.627956130511123, 41.919504842883256 ], [ -87.627325040136128, 41.919746791846443 ], [ -87.628424603395786, 41.91917155263441 ], [ -87.627354477351346, 41.918002826379379 ], [ -87.626800082314929, 41.918251446013088 ], [ -87.627908946771328, 41.917600334986226 ], [ -87.626705226070811, 41.916435008529447 ], [ -87.626092727325968, 41.916835763301201 ], [ -87.62681257608611, 41.916285944161949 ], [ -87.623096504430961, 41.913739976593341 ], [ -87.620617241765046, 41.9137928638551 ], [ -87.620572380877547, 41.913370359527924 ], [ -87.620208170147365, 41.914555908262123 ], [ -87.620989258343414, 41.914785398931265 ], [ -87.62033311107507, 41.914784921969499 ], [ -87.620145539830858, 41.914538258643752 ], [ -87.620149187105028, 41.913923574083697 ], [ -87.620338283788683, 41.913527933273777 ], [ -87.620703526184698, 41.913216590955095 ], [ -87.624464766943447, 41.911566998792388 ], [ -87.627124535451657, 41.911251421021831 ], [ -87.656860797592373, 41.910784509573787 ], [ -87.658650843246434, 41.91470773454828 ], [ -87.661131539030535, 41.916176751745162 ], [ -87.663771081936289, 41.915678454171498 ], [ -87.664534557311583, 41.917702710133966 ], [ -87.668096071534677, 41.922029749129436 ], [ -87.672161303607211, 41.922806409690601 ], [ -87.674255070526726, 41.924390256808032 ], [ -87.674938275858395, 41.926657941875256 ], [ -87.679705184139095, 41.928464202183811 ], [ -87.680804684258391, 41.930640450083565 ], [ -87.68284169129204, 41.932152631425922 ], [ -87.633998457033826, 41.933014722211226 ] ] ] } },
{ "type": "Feature", "properties": { "key": "chicago-8" }, "geometry": { "type": "Polygon", "coordinates": [ [ [ -87.624464766943447, 41.911566998792388 ], [ -87.625089686142374, 41.909111332910669 ], [ -87.623722684149584, 41.904049173822528 ], [ -87.621868265428176, 41.902045853771405 ], [ -87.619234855004308, 41.901098718564675 ], [ -87.61368620760669, 41.893129017101593 ], [ -87.6120301409685, 41.893326886862901 ], [ -87.610154494918262, 41.896227656142379 ], [ -87.602425984682327, 41.89637131433475 ], [ -87.602351955513896, 41.893264590128588 ], [ -87.609822345476744, 41.893145764139071 ], [ -87.609795985276705, 41.892220598810333 ], [ -87.600714664440787, 41.892442960299341 ], [ -87.598549319596728, 41.892274295370633 ], [ -87.598524387586679, 41.89145028950567 ], [ -87.60953544573303, 41.891012947190674 ], [ -87.609547515855922, 41.889314346424683 ], [ -87.611233341241004, 41.88931014006117 ], [ -87.611436636563667, 41.890630336979108 ], [ -87.61987212805704, 41.890465009804352 ], [ -87.612706629188537, 41.890228856737174 ], [ -87.61254944571634, 41.889632028035322 ], [ -87.613974313802586, 41.888408813635941 ], [ -87.625094443597447, 41.888905404372352 ], [ -87.62761676634679, 41.887511821037847 ], [ -87.635619085839934, 41.887452047808303 ], [ -87.637588385828707, 41.88623413629368 ], [ -87.638765165874247, 41.887161541666565 ], [ -87.639435284568208, 41.889228300586254 ], [ -87.641505560179539, 41.891969333277729 ], [ -87.644074838911422, 41.894139119663151 ], [ -87.644231781540938, 41.89663645246241 ], [ -87.644885786058467, 41.897694018807975 ], [ -87.648789901133185, 41.898087778766346 ], [ -87.651899565353176, 41.900013204600533 ], [ -87.65588779533023, 41.901168552498085 ], [ -87.658289011809018, 41.905041195387419 ], [ -87.657485566008063, 41.909090318520064 ], [ -87.659228774872901, 41.909070198815947 ], [ -87.658949822409141, 41.909850766839433 ], [ -87.656860797592373, 41.910784509573787 ], [ -87.624464766943447, 41.911566998792388 ] ] ] } },
{ "type": "Feature", "properties": { "key": "chicago-9" }, "geometry": { "type": "Polygon", "coordinates": [ [ [ -87.806547218823638, 42.018964573054284 ], [ -87.806818119258878, 41.995391939806574 ], [ -87.810333398922538, 41.995419651438723 ], [ -87.810353512961825, 41.997124273348028 ], [ -87.821414322920376, 41.996850529499575 ], [ -87.821253461325995, 42.011356860346659 ], [ -87.819729012465842, 42.011385586505405 ], [ -87.820068893728561, 42.015569637328582 ], [ -87.821230640747643, 42.015541291095843 ], [ -87.821209767477441, 42.01864249102529 ], [ -87.806547218823638, 42.018964573054284 ] ] ] } },
{ "type": "Feature", "properties": { "key": "chicago-10" }, "geometry": { "type": "Polygon", "coordinates": [ [ [ -87.780022286300508, 41.997413553060973 ], [ -87.782851754045723, 41.997400301741507 ], [ -87.782869478342903, 41.996161090644883 ], [ -87.777818852781294, 41.993857045226214 ], [ -87.778038473464505, 41.982904855603095 ], [ -87.787734970840205, 41.982898684554385 ], [ -87.788009407659032, 41.968888239240862 ], [ -87.807156001567577, 41.96826957802827 ], [ -87.807066685347522, 41.974538213097276 ], [ -87.816917463313544, 41.974288948231276 ], [ -87.816953346034069, 41.97066019931151 ], [ -87.818986739519815, 41.970607774410595 ], [ -87.81939805900447, 41.974222571044848 ], [ -87.826735382189455, 41.97403362221776 ], [ -87.826742561776697, 41.973142699918334 ], [ -87.831729144748849, 41.973056064491047 ], [ -87.831722602637115, 41.973948561034341 ], [ -87.833418475487363, 41.973920290710829 ], [ -87.833626649686252, 41.975368048434532 ], [ -87.836626739064712, 41.975309808431106 ], [ -87.836580878743646, 41.986396111591276 ], [ -87.823327420380551, 41.984508993961995 ], [ -87.821414322920376, 41.996850529499575 ], [ -87.810353512961825, 41.997124273348028 ], [ -87.810333398922538, 41.995419651438723 ], [ -87.806818119258878, 41.995391939806574 ], [ -87.806758533753282, 42.000837360814863 ], [ -87.805388467926718, 42.000858701630257 ], [ -87.805294552819035, 42.001497821676566 ], [ -87.801078510841577, 42.001540197574009 ], [ -87.801086099386964, 42.000872436166368 ], [ -87.799659348773346, 42.000869173897563 ], [ -87.799480908370995, 41.999985349354638 ], [ -87.79714196668327, 42.000005095492497 ], [ -87.79712422987086, 42.000939658118895 ], [ -87.791166271576785, 42.000980140929649 ], [ -87.788070095936021, 41.999653366127895 ], [ -87.785589633465761, 41.999721248270774 ], [ -87.783060624543737, 42.000077039994423 ], [ -87.781510443747422, 42.002955612490275 ], [ -87.780289310269836, 42.001607111580583 ], [ -87.780022286300508, 41.997413553060973 ] ], [ [ -87.833209901897561, 41.98365988566335 ], [ -87.833595918669218, 41.982666682538039 ], [ -87.835071612699934, 41.982674743458972 ], [ -87.835091994513562, 41.981148869861947 ], [ -87.834351005393771, 41.980999651246208 ], [ -87.83510037430878, 41.980495200316653 ], [ -87.828859456774723, 41.980600380289744 ], [ -87.828695653198182, 41.979285734548732 ], [ -87.828082457202143, 41.979122863033396 ], [ -87.830023126633137, 41.97812615194988 ], [ -87.829604236470203, 41.976959124374432 ], [ -87.833618866401764, 41.976890611238126 ], [ -87.83362227374613, 41.97591846278835 ], [ -87.824426491522445, 41.976074785169381 ], [ -87.823520106485262, 41.983093284900576 ], [ -87.8252992852304, 41.983067887543974 ], [ -87.825271308926347, 41.981962751901193 ], [ -87.828135971503798, 41.981918589049158 ], [ -87.828177872723018, 41.983842219453109 ], [ -87.833209901897561, 41.98365988566335 ] ] ] } },
{ "type": "Feature", "properties": { "key": "chicago-11" }, "geometry": { "type": "Polygon", "coordinates": [ [ [ -87.75263506823083, 41.967967466516036 ], [ -87.767476688610202, 41.96778264140314 ], [ -87.767504666398594, 41.968689610623429 ], [ -87.788013511643527, 41.968410626516921 ], [ -87.787734970840205, 41.982898684554385 ], [ -87.778038473464505, 41.982904855603095 ], [ -87.777818852781294, 41.993857045226214 ], [ -87.782869478342903, 41.996161090644883 ], [ -87.782851754045723, 41.997400301741507 ], [ -87.780022286300508, 41.997413553060973 ], [ -87.779488700083661, 41.996714907702128 ], [ -87.776710317874958, 41.997248990605513 ], [ -87.775867389820164, 41.996662911138763 ], [ -87.773577262123126, 41.99705818224048 ], [ -87.771552108752843, 41.996502139432856 ], [ -87.771365931701609, 41.994912448268067 ], [ -87.773703459695412, 41.993122027820554 ], [ -87.772898914202926, 41.991788730999076 ], [ -87.770934800837168, 41.99142619398387 ], [ -87.771737580728143, 41.990101218463515 ], [ -87.770479440444134, 41.989058737213099 ], [ -87.767963963117495, 41.988771682011752 ], [ -87.766896050074863, 41.990010143228169 ], [ -87.764154614552936, 41.989356746026964 ], [ -87.762099940845033, 41.990143592711249 ], [ -87.761589730508803, 41.988792745544153 ], [ -87.762285634153514, 41.987953328565744 ], [ -87.760674875423618, 41.987973707120943 ], [ -87.755059806585066, 41.97728680434647 ], [ -87.755194154448048, 41.972504771229382 ], [ -87.752813556765076, 41.97248595238797 ], [ -87.75263506823083, 41.967967466516036 ] ] ] } },
{ "type": "Feature", "properties": { "key": "chicago-12" }, "geometry": { "type": "Polygon", "coordinates": [ [ [ -87.769185277601622, 42.004889134835643 ], [ -87.765794966788562, 42.003325242544591 ], [ -87.765466882167217, 42.003735392896267 ], [ -87.767543474069157, 42.004705537667924 ], [ -87.767461868591383, 42.008321650083118 ], [ -87.761664108667617, 42.00827231388287 ], [ -87.762270144151074, 42.001687245254544 ], [ -87.752900064263301, 41.997300983305486 ], [ -87.726419814091656, 41.997248695153637 ], [ -87.731862180960022, 41.990093878824034 ], [ -87.732865602369557, 41.99008263458628 ], [ -87.734178383622023, 41.988291594270045 ], [ -87.738406488242191, 41.986320183472763 ], [ -87.738306048330244, 41.982712601204575 ], [ -87.746987112134377, 41.982631192394656 ], [ -87.748260033170141, 41.983676890072701 ], [ -87.747520169308288, 41.968479798548728 ], [ -87.747721795861239, 41.968028722766398 ], [ -87.75263506823083, 41.967967466516036 ], [ -87.752813556765076, 41.97248595238797 ], [ -87.755194154448048, 41.972504771229382 ], [ -87.755059806585066, 41.97728680434647 ], [ -87.760674875423618, 41.987973707120943 ], [ -87.762285634153514, 41.987953328565744 ], [ -87.761589730508803, 41.988792745544153 ], [ -87.762099940845033, 41.990143592711249 ], [ -87.764154614552936, 41.989356746026964 ], [ -87.766896050074863, 41.990010143228169 ], [ -87.767963963117495, 41.988771682011752 ], [ -87.771117555042764, 41.989310269087689 ], [ -87.771740842419959, 41.990182105963555 ], [ -87.770882152451023, 41.991356205960329 ], [ -87.772898914202926, 41.991788730999076 ], [ -87.773711325252592, 41.993269758880757 ], [ -87.771514968026622, 41.994697703443116 ], [ -87.771361129231579, 41.996307189993118 ], [ -87.773494810294721, 41.997055035961822 ], [ -87.775867389820164, 41.996662911138763 ], [ -87.776710317874958, 41.997248990605513 ], [ -87.779712637405765, 41.996784241016968 ], [ -87.780289310269836, 42.001607111580583 ], [ -87.780987536881739, 42.002869207311718 ], [ -87.782034619948575, 42.002592549663355 ], [ -87.783175236955941, 42.000020180793769 ], [ -87.787933581156679, 41.999634770563972 ], [ -87.790193962500695, 42.000613117912252 ], [ -87.782003124847023, 42.004497719387778 ], [ -87.788722740962939, 42.011996714781141 ], [ -87.779266230660696, 42.011991714449735 ], [ -87.779103771859752, 42.015441938273767 ], [ -87.776972216817271, 42.015385578768971 ], [ -87.777053244931096, 42.011982328159803 ], [ -87.773349457606187, 42.01195828136418 ], [ -87.769185277601622, 42.004889134835643 ] ] ] } },
{ "type": "Feature", "properties": { "key": "chicago-13" }, "geometry": { "type": "Polygon", "coordinates": [ [ [ -87.710670895194696, 41.997365665447717 ], [ -87.704037713409079, 41.973551582986154 ], [ -87.708737016661942, 41.974675107478838 ], [ -87.711013896793176, 41.973959517862681 ], [ -87.712315786081348, 41.97244279371926 ], [ -87.715665788784733, 41.971920614979418 ], [ -87.725965868456782, 41.976116107366053 ], [ -87.728233387056036, 41.975532007608265 ], [ -87.728131773714921, 41.971884067190217 ], [ -87.731831266555659, 41.971844733575914 ], [ -87.731898797731432, 41.973626901433384 ], [ -87.733116991040774, 41.97365090543903 ], [ -87.73317138209373, 41.97547986281495 ], [ -87.747992935974807, 41.975340793224845 ], [ -87.748260033170141, 41.983676890072701 ], [ -87.746987112134377, 41.982631192394656 ], [ -87.738306048330244, 41.982712601204575 ], [ -87.738406488242191, 41.986320183472763 ], [ -87.734178383622023, 41.988291594270045 ], [ -87.732865602369557, 41.99008263458628 ], [ -87.731862180960022, 41.990093878824034 ], [ -87.726419814091656, 41.997248695153637 ], [ -87.710670895194696, 41.997365665447717 ] ] ] } },
{ "type": "Feature", "properties": { "key": "chicago-14" }, "geometry": { "type": "Polygon", "coordinates": [ [ [ -87.704037713409079, 41.973551582986154 ], [ -87.702647880797542, 41.970340469857234 ], [ -87.696050553803033, 41.963681637037219 ], [ -87.694745772548757, 41.961273425776355 ], [ -87.729693464263775, 41.960926884572672 ], [ -87.737851357516817, 41.966540237332779 ], [ -87.737902288535025, 41.968133930008435 ], [ -87.747721795861239, 41.968028722766398 ], [ -87.747992935974807, 41.975340793224845 ], [ -87.73317138209373, 41.97547986281495 ], [ -87.733116991040774, 41.97365090543903 ], [ -87.731898797731432, 41.973626901433384 ], [ -87.731831266555659, 41.971844733575914 ], [ -87.728131773714921, 41.971884067190217 ], [ -87.728233387056036, 41.975532007608265 ], [ -87.725965868456782, 41.976116107366053 ], [ -87.715665788784733, 41.971920614979418 ], [ -87.712315786081348, 41.97244279371926 ], [ -87.711013896793176, 41.973959517862681 ], [ -87.708737016661942, 41.974675107478838 ], [ -87.704037713409079, 41.973551582986154 ] ] ] } },
{ "type": "Feature", "properties": { "key": "chicago-15" }, "geometry": { "type": "Polygon", "coordinates": [ [ [ -87.767476688610202, 41.96778264140314 ], [ -87.747721795861239, 41.968028722766398 ], [ -87.74718117144154, 41.963391331823644 ], [ -87.747908237611128, 41.963481663979948 ], [ -87.744439389924565, 41.960756007169472 ], [ -87.746483618092611, 41.960735809991647 ], [ -87.742498694427169, 41.953474307130115 ], [ -87.742249291080455, 41.942539848141763 ], [ -87.742960131202182, 41.942531541743911 ], [ -87.742108283338752, 41.938891636533263 ], [ -87.776214629422313, 41.938448146383237 ], [ -87.776774803283161, 41.953056144195713 ], [ -87.786559506769294, 41.95291650419793 ], [ -87.786772374670207, 41.968427015116752 ], [ -87.767504666398594, 41.968689610623429 ], [ -87.767476688610202, 41.96778264140314 ] ] ] } },
{ "type": "Feature", "properties": { "key": "chicago-16" }, "geometry": { "type": "Polygon", "coordinates": [ [ [ -87.694745772548757, 41.961273425776355 ], [ -87.694554687343668, 41.953922296099712 ], [ -87.696863559833048, 41.950006256630616 ], [ -87.696204473121526, 41.94669596936766 ], [ -87.727401077178982, 41.94637316890546 ], [ -87.727185362670795, 41.939095135277825 ], [ -87.742108283338752, 41.938891636533263 ], [ -87.742960131202182, 41.942531541743911 ], [ -87.742249291080455, 41.942539848141763 ], [ -87.742498694427169, 41.953474307130115 ], [ -87.746483618092611, 41.960735809991647 ], [ -87.744439389924565, 41.960756007169472 ], [ -87.747908237611128, 41.963481663979948 ], [ -87.74718117144154, 41.963391331823644 ], [ -87.747721795861239, 41.968028722766398 ], [ -87.737902288535025, 41.968133930008435 ], [ -87.737851357516817, 41.966540237332779 ], [ -87.729693464263775, 41.960926884572672 ], [ -87.694745772548757, 41.961273425776355 ] ] ] } },
{ "type": "Feature", "properties": { "key": "chicago-17" }, "geometry": { "type": "Polygon", "coordinates": [ [ [ -87.776214629422313, 41.938448146383237 ], [ -87.806746806742339, 41.93799634594086 ], [ -87.806623557292326, 41.934511183477973 ], [ -87.816390390986413, 41.934312543159656 ], [ -87.81651876080781, 41.937938765797966 ], [ -87.834810170938383, 41.937576421607091 ], [ -87.835120859003695, 41.94466766775956 ], [ -87.836432948514627, 41.944760729826378 ], [ -87.836698864488042, 41.959360211773941 ], [ -87.832677842233224, 41.959438149894716 ], [ -87.831793026757168, 41.952163820899784 ], [ -87.807269233539131, 41.952764606971265 ], [ -87.807290609450021, 41.95386574837552 ], [ -87.794327930301918, 41.960030311109861 ], [ -87.7868054038927, 41.960217020558268 ], [ -87.786559506769294, 41.95291650419793 ], [ -87.776774803283161, 41.953056144195713 ], [ -87.776214629422313, 41.938448146383237 ] ] ] } },
{ "type": "Feature", "properties": { "key": "chicago-18" }, "geometry": { "type": "Polygon", "coordinates": [ [ [ -87.789415114058045, 41.91751009632965 ], [ -87.806229801364921, 41.923368243087779 ], [ -87.806746806742339, 41.93799634594086 ], [ -87.790769187574128, 41.938238614094587 ], [ -87.790255265160155, 41.9189846824627 ], [ -87.789415114058045, 41.91751009632965 ] ] ] } },
{ "type": "Feature", "properties": { "key": "chicago-19" }, "geometry": { "type": "Polygon", "coordinates": [ [ [ -87.741335448058052, 41.913897604599597 ], [ -87.763814188328737, 41.916626206574087 ], [ -87.7852711216931, 41.916452085323897 ], [ -87.789265824559521, 41.917431564225154 ], [ -87.790255265160155, 41.9189846824627 ], [ -87.790769187574128, 41.938238614094587 ], [ -87.742174977840492, 41.938890779072445 ], [ -87.741335448058052, 41.913897604599597 ] ] ] } },
{ "type": "Feature", "properties": { "key": "chicago-20" }, "geometry": { "type": "Polygon", "coordinates": [ [ [ -87.735222035602177, 41.938986201525296 ], [ -87.727702158789285, 41.924473045380445 ], [ -87.726768584021301, 41.924483954654114 ], [ -87.726614998839906, 41.918993622270186 ], [ -87.724875843001087, 41.919016331460696 ], [ -87.723905589456251, 41.917198272578659 ], [ -87.724059175982688, 41.915373144044558 ], [ -87.723140137531061, 41.915384996849902 ], [ -87.722347548517703, 41.913635112450528 ], [ -87.741335448058052, 41.913897604599597 ], [ -87.742174977840492, 41.938890779072445 ], [ -87.735222035602177, 41.938986201525296 ] ] ] } },
{ "type": "Feature", "properties": { "key": "chicago-21" }, "geometry": { "type": "Polygon", "coordinates": [ [ [ -87.687986787851699, 41.93610394035656 ], [ -87.687882691120535, 41.932179125823318 ], [ -87.731460134840162, 41.931733972217017 ], [ -87.735222035602177, 41.938986201525296 ], [ -87.727185362670795, 41.939095135277825 ], [ -87.727401077178982, 41.94637316890546 ], [ -87.696204473121526, 41.94669596936766 ], [ -87.695278642536152, 41.942766314205144 ], [ -87.693633107744503, 41.940255062246358 ], [ -87.691486305777545, 41.938791801119528 ], [ -87.690149256850205, 41.936698712186555 ], [ -87.687986787851699, 41.93610394035656 ] ] ] } },
{ "type": "Feature", "properties": { "key": "chicago-22" }, "geometry": { "type": "Polygon", "coordinates": [ [ [ -87.683433437498707, 41.933395794137063 ], [ -87.680804684258391, 41.930640450083565 ], [ -87.679705184139095, 41.928464202183811 ], [ -87.674938275858395, 41.926657941875256 ], [ -87.674255070526726, 41.924390256808032 ], [ -87.672161303607211, 41.922806409690601 ], [ -87.668096071534677, 41.922029749129436 ], [ -87.664601943116864, 41.917801236174817 ], [ -87.663620560007786, 41.915615005757481 ], [ -87.66743699456741, 41.914281244579584 ], [ -87.682446863078326, 41.914619154748493 ], [ -87.682419508081921, 41.913582235852516 ], [ -87.68315485380468, 41.914058568442918 ], [ -87.722347548517703, 41.913635112450528 ], [ -87.723140137531061, 41.915384996849902 ], [ -87.724059175982688, 41.915373144044558 ], [ -87.723905589456251, 41.917198272578659 ], [ -87.724875843001087, 41.919016331460696 ], [ -87.726614998839906, 41.918993622270186 ], [ -87.726768584021301, 41.924483954654114 ], [ -87.727702158789285, 41.924473045380445 ], [ -87.731460134840162, 41.931733972217017 ], [ -87.687882691120535, 41.932179125823318 ], [ -87.687986787851699, 41.93610394035656 ], [ -87.685967692017584, 41.934033487962076 ], [ -87.683433437498707, 41.933395794137063 ] ] ] } },
{ "type": "Feature", "properties": { "key": "chicago-23" }, "geometry": { "type": "Polygon", "coordinates": [ [ [ -87.691570009487734, 41.888195634180995 ], [ -87.740595675100067, 41.887823168116924 ], [ -87.741341679355116, 41.899852632209331 ], [ -87.741335448058052, 41.913897604599597 ], [ -87.736723968047016, 41.913465532772754 ], [ -87.701980508224239, 41.91392121958868 ], [ -87.70186599251484, 41.910173043555254 ], [ -87.706986244231203, 41.910063266286642 ], [ -87.706674456627255, 41.899195400613614 ], [ -87.701951128849728, 41.899238356643878 ], [ -87.702204047076521, 41.89559488552748 ], [ -87.696702633729373, 41.895653518299376 ], [ -87.696671116771697, 41.894333273557159 ], [ -87.6916677819315, 41.89233237886836 ], [ -87.691570009487734, 41.888195634180995 ] ] ] } },
{ "type": "Feature", "properties": { "key": "chicago-24" }, "geometry": { "type": "Polygon", "coordinates": [ [ [ -87.656860797592373, 41.910784509573787 ], [ -87.658949822409141, 41.909850766839433 ], [ -87.659228774872901, 41.909070198815947 ], [ -87.657485566008063, 41.909090318520064 ], [ -87.658289011809018, 41.905041195387419 ], [ -87.65588779533023, 41.901168552498085 ], [ -87.651899565353176, 41.900013204600533 ], [ -87.648789901133185, 41.898087778766346 ], [ -87.644885786058467, 41.897694018807975 ], [ -87.644231781540938, 41.89663645246241 ], [ -87.644074838911422, 41.894139119663151 ], [ -87.641574157575661, 41.892048506158048 ], [ -87.639360982943543, 41.889080284242908 ], [ -87.644333925266608, 41.889033572639633 ], [ -87.644322257477583, 41.88858220115582 ], [ -87.6475658372201, 41.888567527142946 ], [ -87.647582617470547, 41.889049515884551 ], [ -87.691570009487734, 41.888195634180995 ], [ -87.6916677819315, 41.89233237886836 ], [ -87.696671116771697, 41.894333273557159 ], [ -87.696702633729373, 41.895653518299376 ], [ -87.702204047076521, 41.89559488552748 ], [ -87.701951128849728, 41.899238356643878 ], [ -87.706674456627255, 41.899195400613614 ], [ -87.706986244231203, 41.910063266286642 ], [ -87.70186599251484, 41.910173043555254 ], [ -87.701980508224239, 41.91392121958868 ], [ -87.68315485380468, 41.914058568442918 ], [ -87.682419508081921, 41.913582235852516 ], [ -87.682446863078326, 41.914619154748493 ], [ -87.66743699456741, 41.914281244579584 ], [ -87.661172225923224, 41.916182423496203 ], [ -87.658077227071743, 41.914108058041975 ], [ -87.656860797592373, 41.910784509573787 ] ] ] } },
{ "type": "Feature", "properties": { "key": "chicago-25" }, "geometry": { "type": "Polygon", "coordinates": [ [ [ -87.806229801364921, 41.923368243087779 ], [ -87.7852711216931, 41.916452085323897 ], [ -87.763814188328737, 41.916626206574087 ], [ -87.741335448058052, 41.913897604599597 ], [ -87.741163176352146, 41.895914754857586 ], [ -87.740212075552364, 41.876907358795343 ], [ -87.739514529731096, 41.876909119935746 ], [ -87.739452981148276, 41.875295737002737 ], [ -87.739389858799328, 41.873265629039913 ], [ -87.740084638940786, 41.873251698376023 ], [ -87.739766471335741, 41.865962195041625 ], [ -87.774138851768498, 41.865459150649912 ], [ -87.775599305623189, 41.90925355528487 ], [ -87.80574541300733, 41.908839350923415 ], [ -87.806229801364921, 41.923368243087779 ] ] ] } },
{ "type": "Feature", "properties": { "key": "chicago-26" }, "geometry": { "type": "Polygon", "coordinates": [ [ [ -87.720983301940478, 41.888067055941917 ], [ -87.720196061237317, 41.868587107932875 ], [ -87.732577632950651, 41.868998937044296 ], [ -87.732672889385853, 41.870976826395335 ], [ -87.739894242164965, 41.86896303189959 ], [ -87.740084638940786, 41.873251698376023 ], [ -87.739389858799328, 41.873265629039913 ], [ -87.739501927974928, 41.876624345035495 ], [ -87.740212075552364, 41.876907358795343 ], [ -87.740595675100067, 41.887823168116924 ], [ -87.720983301940478, 41.888067055941917 ] ] ] } },
{ "type": "Feature", "properties": { "key": "chicago-27" }, "geometry": { "type": "Polygon", "coordinates": [ [ [ -87.720983301940478, 41.888067055941917 ], [ -87.688671510409776, 41.888174593173225 ], [ -87.691151793204185, 41.887095941992236 ], [ -87.691592096586305, 41.884429703368369 ], [ -87.69227959523586, 41.884404449252237 ], [ -87.692162269877187, 41.881105977846318 ], [ -87.691504555089438, 41.881113465782938 ], [ -87.691192772347534, 41.869294657032697 ], [ -87.705756193753956, 41.869133083849427 ], [ -87.706034289463602, 41.870060211861578 ], [ -87.72023936013656, 41.869869084441241 ], [ -87.720983301940478, 41.888067055941917 ] ] ] } },
{ "type": "Feature", "properties": { "key": "chicago-28" }, "geometry": { "type": "Polygon", "coordinates": [ [ [ -87.637588385828707, 41.88623413629368 ], [ -87.63811419965748, 41.879182204099735 ], [ -87.637330083976423, 41.876470614103624 ], [ -87.636065566070243, 41.874673119103349 ], [ -87.634728296178238, 41.867262013200893 ], [ -87.63450859377231, 41.859384252542228 ], [ -87.635158159375877, 41.857722095253074 ], [ -87.638935723197918, 41.857665474705335 ], [ -87.6390136663112, 41.860018026734757 ], [ -87.674272591031695, 41.85954587999678 ], [ -87.685810994357084, 41.858415234401775 ], [ -87.685833877308795, 41.859365898388631 ], [ -87.688168913203924, 41.859337845394698 ], [ -87.688182005901027, 41.863056826999575 ], [ -87.690753837010703, 41.866564359815236 ], [ -87.691161756423512, 41.868358273500263 ], [ -87.691504555089438, 41.881113465782938 ], [ -87.692162269877187, 41.881105977846318 ], [ -87.69227959523586, 41.884404449252237 ], [ -87.691592096586305, 41.884429703368369 ], [ -87.69168606946063, 41.88609384921007 ], [ -87.690524474516607, 41.887577820565639 ], [ -87.686622421958603, 41.888634935909188 ], [ -87.647582617470547, 41.889049515884551 ], [ -87.6475658372201, 41.888567527142946 ], [ -87.644322257477583, 41.88858220115582 ], [ -87.644333925266608, 41.889033572639633 ], [ -87.639360982943543, 41.889080284242908 ], [ -87.638765165874247, 41.887161541666565 ], [ -87.637588385828707, 41.88623413629368 ] ] ] } },
{ "type": "Feature", "properties": { "key": "chicago-29" }, "geometry": { "type": "Polygon", "coordinates": [ [ [ -87.72023936013656, 41.869869084441241 ], [ -87.706034289463602, 41.870060211861578 ], [ -87.705756193753956, 41.869133083849427 ], [ -87.691192772347534, 41.869294657032697 ], [ -87.690753837010703, 41.866564359815236 ], [ -87.688182005901027, 41.863056826999575 ], [ -87.687962214969289, 41.856985640739367 ], [ -87.69555891539305, 41.855284783978107 ], [ -87.702928884061237, 41.855450964417116 ], [ -87.70287726404959, 41.853801672271572 ], [ -87.711202904373053, 41.85355074437512 ], [ -87.711142937830687, 41.851991137093336 ], [ -87.712421513117349, 41.851706670705639 ], [ -87.72228123658661, 41.85158163975975 ], [ -87.722226652924789, 41.84936084326079 ], [ -87.739323089747188, 41.845592853944659 ], [ -87.739894242164965, 41.86896303189959 ], [ -87.732672889385853, 41.870976826395335 ], [ -87.732577632950651, 41.868998937044296 ], [ -87.720196061237317, 41.868587107932875 ], [ -87.72023936013656, 41.869869084441241 ] ] ] } },
{ "type": "Feature", "properties": { "key": "chicago-30" }, "geometry": { "type": "Polygon", "coordinates": [ [ [ -87.68739948177965, 41.834800982012965 ], [ -87.704607440339942, 41.829798178821456 ], [ -87.704577726306226, 41.829115533404625 ], [ -87.738556581432221, 41.818706144260389 ], [ -87.739323089747188, 41.845592853944659 ], [ -87.722226652924789, 41.84936084326079 ], [ -87.72228123658661, 41.85158163975975 ], [ -87.712421513117349, 41.851706670705639 ], [ -87.711142937830687, 41.851991137093336 ], [ -87.711202904373053, 41.85355074437512 ], [ -87.70287726404959, 41.853801672271572 ], [ -87.702928884061237, 41.855450964417116 ], [ -87.69555891539305, 41.855284783978107 ], [ -87.68803384628572, 41.856969764843399 ], [ -87.68739948177965, 41.834800982012965 ] ] ] } },
{ "type": "Feature", "properties": { "key": "chicago-31" }, "geometry": { "type": "Polygon", "coordinates": [ [ [ -87.635158159375877, 41.857722095253074 ], [ -87.63616109894393, 41.856291883271695 ], [ -87.639393980228462, 41.854284971113465 ], [ -87.643315675957879, 41.849693006260651 ], [ -87.658604633881367, 41.847264845351823 ], [ -87.663606853550704, 41.844405993299489 ], [ -87.664968968614573, 41.841618868764307 ], [ -87.664285117881619, 41.839065031441905 ], [ -87.66650632320659, 41.837861274266231 ], [ -87.669264012387046, 41.837176036600539 ], [ -87.679661431350723, 41.837102034154604 ], [ -87.687457905019016, 41.834913102147773 ], [ -87.688073004997179, 41.859338426248563 ], [ -87.685833877308795, 41.859365898388631 ], [ -87.685810994357084, 41.858415234401775 ], [ -87.674272591031695, 41.85954587999678 ], [ -87.6390136663112, 41.860018026734757 ], [ -87.638935723197918, 41.857665474705335 ], [ -87.635158159375877, 41.857722095253074 ] ] ] } },
{ "type": "Feature", "properties": { "key": "chicago-32" }, "geometry": { "type": "Polygon", "coordinates": [ [ [ -87.611233341241004, 41.88931014006117 ], [ -87.607664845614948, 41.889369171238513 ], [ -87.607514035957564, 41.888640337201068 ], [ -87.602455712112032, 41.888329001039303 ], [ -87.609846444194204, 41.887970422261503 ], [ -87.609985887838661, 41.884080327617284 ], [ -87.612736108693312, 41.884058512007947 ], [ -87.6135058000729, 41.882860044159202 ], [ -87.616399380088041, 41.882022519428311 ], [ -87.61572212948451, 41.880567490428874 ], [ -87.616477676611822, 41.880556814311255 ], [ -87.616211902654541, 41.86889870172778 ], [ -87.615352460010882, 41.868304279187015 ], [ -87.618961564205975, 41.867502856048915 ], [ -87.634734018656445, 41.86731465773962 ], [ -87.635868898631912, 41.873971318843687 ], [ -87.637428919836566, 41.876688255406364 ], [ -87.638233743527067, 41.87999363221099 ], [ -87.637439698541442, 41.886419625006894 ], [ -87.635619085839934, 41.887452047808303 ], [ -87.62761676634679, 41.887511821037847 ], [ -87.625094443597447, 41.888905404372352 ], [ -87.613974313802586, 41.888408813635941 ], [ -87.61254944571634, 41.889632028035322 ], [ -87.612706629188537, 41.890228856737174 ], [ -87.61987212805704, 41.890465009804352 ], [ -87.611436636563667, 41.890630336979108 ], [ -87.611233341241004, 41.88931014006117 ] ] ] } },
{ "type": "Feature", "properties": { "key": "chicago-33" }, "geometry": { "type": "Polygon", "coordinates": [ [ [ -87.609140876178941, 41.844692502653977 ], [ -87.609406145406339, 41.845266503985904 ], [ -87.616008404203228, 41.845093122317444 ], [ -87.617671405604327, 41.845723202569339 ], [ -87.629168184648393, 41.845556605816 ], [ -87.629349716637336, 41.852881755469099 ], [ -87.630061298552917, 41.852877151636591 ], [ -87.630226406921068, 41.857779149425909 ], [ -87.635158159375877, 41.857722095253074 ], [ -87.63450859377231, 41.859384252542228 ], [ -87.634734018656445, 41.86731465773962 ], [ -87.618961564205975, 41.867502856048915 ], [ -87.618541398975026, 41.867989884170093 ], [ -87.613638031212332, 41.868506337114589 ], [ -87.612415959001837, 41.867937995608948 ], [ -87.612687842361936, 41.866753089232162 ], [ -87.605886448042838, 41.866932520427447 ], [ -87.606045391712101, 41.864793616782109 ], [ -87.606869962445472, 41.865181220027374 ], [ -87.607579299511457, 41.864273955328855 ], [ -87.606954892085795, 41.862374418091832 ], [ -87.606021005340295, 41.862005470328114 ], [ -87.60596459466953, 41.860080240996346 ], [ -87.607072394006366, 41.859958381964809 ], [ -87.606510735097828, 41.853358578722762 ], [ -87.609004197357265, 41.853181327921419 ], [ -87.609897283006177, 41.853770385309566 ], [ -87.609335204491913, 41.856817026077771 ], [ -87.61067484821956, 41.860650922742032 ], [ -87.609605345798883, 41.863405150986445 ], [ -87.610480372315095, 41.865864651551121 ], [ -87.61266898965124, 41.865842730933046 ], [ -87.61343989614825, 41.863370771207549 ], [ -87.612150377863486, 41.860345541955724 ], [ -87.612186795372011, 41.858584345909151 ], [ -87.613041757080836, 41.857611055629981 ], [ -87.612852593396411, 41.856355827665503 ], [ -87.611161608178094, 41.854863996799573 ], [ -87.609221800105175, 41.850908728757354 ], [ -87.60948965300723, 41.848074228033603 ], [ -87.608408385571735, 41.846066131481187 ], [ -87.609140876178941, 41.844692502653977 ] ] ] } },
{ "type": "Feature", "properties": { "key": "chicago-34" }, "geometry": { "type": "Polygon", "coordinates": [ [ [ -87.629168184648393, 41.845556605816 ], [ -87.62996524445613, 41.84554483294518 ], [ -87.628968199713611, 41.823681491629785 ], [ -87.633963923073921, 41.823613287045674 ], [ -87.636063744204989, 41.82521045157457 ], [ -87.636403841950539, 41.827230909404506 ], [ -87.63657613686064, 41.834146788889413 ], [ -87.635889697586805, 41.834534842178947 ], [ -87.635932016636289, 41.836359626084047 ], [ -87.636430642090716, 41.836354054793361 ], [ -87.636512039002326, 41.843642687757836 ], [ -87.638291489565773, 41.843616780689182 ], [ -87.638357832000636, 41.846182556010298 ], [ -87.641600072359068, 41.84630055170129 ], [ -87.642425910545313, 41.848109542310276 ], [ -87.641623658157783, 41.848192778426046 ], [ -87.642248233538595, 41.848925553310465 ], [ -87.64323272035935, 41.84852246965923 ], [ -87.64399883446832, 41.84950523850744 ], [ -87.642640039981572, 41.850023826968339 ], [ -87.639393980228462, 41.854284971113465 ], [ -87.63616109894393, 41.856291883271695 ], [ -87.635158159375877, 41.857722095253074 ], [ -87.630226406921068, 41.857779149425909 ], [ -87.630061298552917, 41.852877151636591 ], [ -87.629349716637336, 41.852881755469099 ], [ -87.629168184648393, 41.845556605816 ] ] ] } },
{ "type": "Feature", "properties": { "key": "chicago-35" }, "geometry": { "type": "Polygon", "coordinates": [ [ [ -87.609406145406339, 41.845266503985904 ], [ -87.607849343257328, 41.841030609153385 ], [ -87.60667816425287, 41.840561372588041 ], [ -87.607500904329513, 41.840502844881122 ], [ -87.607095230072346, 41.839512036959192 ], [ -87.606156278396114, 41.838635021124844 ], [ -87.60470984485778, 41.838960060651338 ], [ -87.604185063222914, 41.839828572849825 ], [ -87.604667034870303, 41.838879870158493 ], [ -87.606134988799397, 41.838551275839215 ], [ -87.606071675238553, 41.837293058456886 ], [ -87.60455786851962, 41.834991969650574 ], [ -87.604868464102864, 41.833795581844271 ], [ -87.603012441590735, 41.832731578817587 ], [ -87.60271020373473, 41.831366246868491 ], [ -87.610633357790618, 41.831186224615507 ], [ -87.612624272403238, 41.823890804368261 ], [ -87.628968199713611, 41.823681491629785 ], [ -87.629965244405028, 41.845544837610099 ], [ -87.617671405604327, 41.845723202569339 ], [ -87.616008404203228, 41.845093122317444 ], [ -87.609406145406339, 41.845266503985904 ] ] ] } },
{ "type": "Feature", "properties": { "key": "chicago-36" }, "geometry": { "type": "Polygon", "coordinates": [ [ [ -87.592152838793936, 41.816929346266839 ], [ -87.606708125612499, 41.816813770572182 ], [ -87.606859185725312, 41.823165707256805 ], [ -87.606437204349874, 41.823306083943244 ], [ -87.606873058331544, 41.82396480017465 ], [ -87.612624272403238, 41.823890804368261 ], [ -87.610633357790618, 41.831186224615507 ], [ -87.60271020373473, 41.831366246868491 ], [ -87.599972004560712, 41.82793046274719 ], [ -87.597754884029669, 41.82634380429046 ], [ -87.59727092138688, 41.822617829443594 ], [ -87.5951150607724, 41.819813622066114 ], [ -87.592615651860712, 41.818342551863587 ], [ -87.592152838793936, 41.816929346266839 ] ] ] } },
{ "type": "Feature", "properties": { "key": "chicago-37" }, "geometry": { "type": "Polygon", "coordinates": [ [ [ -87.629356524929463, 41.82367645970583 ], [ -87.62855540676513, 41.794599284530136 ], [ -87.635457499123632, 41.794476047781181 ], [ -87.635861546934734, 41.810918405600589 ], [ -87.636379596322797, 41.810908389782568 ], [ -87.636161982008915, 41.81634669598548 ], [ -87.6357157455585, 41.816352683070811 ], [ -87.636117879671048, 41.823585779024796 ], [ -87.629356524929463, 41.82367645970583 ] ] ] } },
{ "type": "Feature", "properties": { "key": "chicago-38" }, "geometry": { "type": "Polygon", "coordinates": [ [ [ -87.606859185725312, 41.823165707256805 ], [ -87.606407205528512, 41.802251162319088 ], [ -87.62879823733725, 41.80189303368919 ], [ -87.629356524929463, 41.82367645970583 ], [ -87.606873058331544, 41.82396480017465 ], [ -87.606437204349874, 41.823306083943244 ], [ -87.606859185725312, 41.823165707256805 ] ] ] } },
{ "type": "Feature", "properties": { "key": "chicago-39" }, "geometry": { "type": "Polygon", "coordinates": [ [ [ -87.592152838793936, 41.816929346266839 ], [ -87.590035814101526, 41.81351624628283 ], [ -87.58733673360544, 41.811837504636607 ], [ -87.585157698049443, 41.807215285892774 ], [ -87.580114773521316, 41.803927152324093 ], [ -87.580376620854182, 41.802525022051263 ], [ -87.606407205528512, 41.802251162319088 ], [ -87.606708125612499, 41.816813770572182 ], [ -87.592152838793936, 41.816929346266839 ] ] ] } },
{ "type": "Feature", "properties": { "key": "chicago-40" }, "geometry": { "type": "Polygon", "coordinates": [ [ [ -87.606037492170046, 41.785874064994196 ], [ -87.615759541549778, 41.785698913757336 ], [ -87.615622330437745, 41.780239137635192 ], [ -87.625374849104503, 41.78005828551585 ], [ -87.625404065848713, 41.783209976737233 ], [ -87.628262591871575, 41.783160302153831 ], [ -87.62879823733725, 41.80189303368919 ], [ -87.606407205528512, 41.802251162319088 ], [ -87.606037492170046, 41.785874064994196 ] ] ] } },
{ "type": "Feature", "properties": { "key": "chicago-41" }, "geometry": { "type": "Polygon", "coordinates": [ [ [ -87.580376620854182, 41.802525022051263 ], [ -87.579937261042218, 41.798369145280411 ], [ -87.57821015388437, 41.797012983914826 ], [ -87.575883282322977, 41.796977356538015 ], [ -87.575164369141902, 41.796240441004457 ], [ -87.575443714423827, 41.795439857441949 ], [ -87.57893908794901, 41.794272395943501 ], [ -87.579628143928645, 41.792035545118594 ], [ -87.578271943049486, 41.789936440116399 ], [ -87.576320343474265, 41.788570115680386 ], [ -87.577759007212876, 41.788297557387658 ], [ -87.577149940052578, 41.788182598212444 ], [ -87.577144568913354, 41.786146410134393 ], [ -87.606037492170046, 41.785874064994196 ], [ -87.606407205528512, 41.802251162319088 ], [ -87.580376620854182, 41.802525022051263 ] ] ] } },
{ "type": "Feature", "properties": { "key": "chicago-42" }, "geometry": { "type": "Polygon", "coordinates": [ [ [ -87.577144568913354, 41.786146410134393 ], [ -87.576045904092439, 41.783598409575738 ], [ -87.570496917544105, 41.781371208892843 ], [ -87.568396842639359, 41.781608405016016 ], [ -87.567532320442922, 41.7845966436726 ], [ -87.568305562471593, 41.78153885635637 ], [ -87.573079598296403, 41.780250548506743 ], [ -87.57295411670377, 41.779823805092342 ], [ -87.574734832407714, 41.779111085529337 ], [ -87.575302637983555, 41.777407886573464 ], [ -87.574607637703963, 41.776154099376328 ], [ -87.575043266032537, 41.775785453274224 ], [ -87.573367020696011, 41.775377086641903 ], [ -87.571998344964996, 41.775821243791 ], [ -87.571772808087744, 41.776663891897449 ], [ -87.573360676416613, 41.778305611067793 ], [ -87.573213835341789, 41.779191043963678 ], [ -87.572238157494752, 41.779227944514382 ], [ -87.566448186421894, 41.773791081996691 ], [ -87.605768753914774, 41.773140860891743 ], [ -87.605587164226392, 41.765868563249143 ], [ -87.615449799983423, 41.772969770533749 ], [ -87.615759541549778, 41.785698913757336 ], [ -87.577144568913354, 41.786146410134393 ] ] ] } },
{ "type": "Feature", "properties": { "key": "chicago-43" }, "geometry": { "type": "Polygon", "coordinates": [ [ [ -87.540596759128334, 41.757269283254338 ], [ -87.546562903204062, 41.753870964471631 ], [ -87.5477399938205, 41.754530103060851 ], [ -87.552287281943109, 41.751918637779504 ], [ -87.585824400800689, 41.751505558525352 ], [ -87.595630371388651, 41.758695854376214 ], [ -87.594582111260436, 41.762346293311417 ], [ -87.593324114692408, 41.76235443980552 ], [ -87.593299460950917, 41.766005405977296 ], [ -87.592281804034869, 41.766011570053614 ], [ -87.592751962182319, 41.770153551386244 ], [ -87.592098569003113, 41.773275462170879 ], [ -87.566448186421894, 41.773791081996691 ], [ -87.563580842816492, 41.772025785149992 ], [ -87.562337662940493, 41.769000925678888 ], [ -87.560526704292855, 41.768397088573437 ], [ -87.55953563167698, 41.769179126491352 ], [ -87.559392142254964, 41.766782943136427 ], [ -87.560516027116506, 41.766171396777978 ], [ -87.560513677296484, 41.765389806880997 ], [ -87.556078569662475, 41.761821121277727 ], [ -87.554802428040688, 41.761771316667428 ], [ -87.554032690109224, 41.760761220075217 ], [ -87.548708866387187, 41.758726206339304 ], [ -87.546936760581872, 41.758771610828667 ], [ -87.54385300613626, 41.760111659382169 ], [ -87.546476795489994, 41.760651843247956 ], [ -87.544365247017708, 41.760666149934082 ], [ -87.543041011270361, 41.759600852367285 ], [ -87.540596759128334, 41.757269283254338 ] ] ] } },
{ "type": "Feature", "properties": { "key": "chicago-44" }, "geometry": { "type": "Polygon", "coordinates": [ [ [ -87.595347408997299, 41.736782372394735 ], [ -87.600393591922582, 41.736710254156797 ], [ -87.601160595817277, 41.733131932777646 ], [ -87.602018764000036, 41.733030534721983 ], [ -87.603585434352922, 41.723427345600143 ], [ -87.604507025036526, 41.723613972604312 ], [ -87.604491693382769, 41.72254809361332 ], [ -87.614272765728401, 41.726933769249825 ], [ -87.614301055466285, 41.727888892615844 ], [ -87.617346337945648, 41.729052283608262 ], [ -87.619190161062747, 41.729541265665489 ], [ -87.619176724545781, 41.729119466261189 ], [ -87.625671405749841, 41.729019300802179 ], [ -87.632720518726117, 41.735972319665123 ], [ -87.634008350318766, 41.739556526967768 ], [ -87.634107819635474, 41.743498092382168 ], [ -87.635945528884008, 41.744162165735005 ], [ -87.63647723151395, 41.743517838555938 ], [ -87.639190142173774, 41.743434069869387 ], [ -87.639452265689599, 41.750487176280956 ], [ -87.597208020658599, 41.751369384460766 ], [ -87.597850319557537, 41.74169258615256 ], [ -87.595347408997299, 41.736782372394735 ] ] ] } },
{ "type": "Feature", "properties": { "key": "chicago-45" }, "geometry": { "type": "Polygon", "coordinates": [ [ [ -87.593061934719785, 41.756881788630317 ], [ -87.584456756062806, 41.750689591206893 ], [ -87.565700625029692, 41.737197718754167 ], [ -87.595347408997299, 41.736782372394735 ], [ -87.597881807702009, 41.742144226038114 ], [ -87.597208020658599, 41.751369384460766 ], [ -87.595490623944102, 41.751386642624261 ], [ -87.59559556885138, 41.755032182251668 ], [ -87.596216096927208, 41.755026286099465 ], [ -87.595797936648651, 41.756858239028432 ], [ -87.593061934719785, 41.756881788630317 ] ] ] } },
{ "type": "Feature", "properties": { "key": "chicago-46" }, "geometry": { "type": "Polygon", "coordinates": [ [ [ -87.543978117113696, 41.755152222720831 ], [ -87.544413212396037, 41.754131572007452 ], [ -87.54318778206455, 41.751989241008445 ], [ -87.540489666762113, 41.751864449035239 ], [ -87.530948298138526, 41.748025954869071 ], [ -87.529879007692969, 41.741478817019996 ], [ -87.524462287356329, 41.741468528417464 ], [ -87.539855201543361, 41.741013006060989 ], [ -87.539830043573872, 41.740496903775984 ], [ -87.529856637858146, 41.740607317204585 ], [ -87.528958096781508, 41.733747600154288 ], [ -87.529251009959509, 41.733013567944688 ], [ -87.541398936400554, 41.727585766823644 ], [ -87.542251776078672, 41.726579199853745 ], [ -87.543144299350672, 41.722861752052104 ], [ -87.54567696316127, 41.722820577410126 ], [ -87.585655298342971, 41.75150194251394 ], [ -87.552287281943109, 41.751918637779504 ], [ -87.5477399938205, 41.754530103060851 ], [ -87.546562903204062, 41.753870964471631 ], [ -87.543978117113696, 41.755152222720831 ] ] ] } },
{ "type": "Feature", "properties": { "key": "chicago-47" }, "geometry": { "type": "Polygon", "coordinates": [ [ [ -87.595347408997299, 41.736782372394735 ], [ -87.586703789677344, 41.722321554678793 ], [ -87.604481612438647, 41.722044323975048 ], [ -87.604507025036526, 41.723613972604312 ], [ -87.603585434352922, 41.723427345600143 ], [ -87.603061641194685, 41.7257293491434 ], [ -87.603273060016335, 41.727551472179506 ], [ -87.602018764000036, 41.733030534721983 ], [ -87.601160595817277, 41.733131932777646 ], [ -87.600393591922582, 41.736710254156797 ], [ -87.595347408997299, 41.736782372394735 ] ] ] } },
{ "type": "Feature", "properties": { "key": "chicago-48" }, "geometry": { "type": "Polygon", "coordinates": [ [ [ -87.54567696316127, 41.722820577410126 ], [ -87.565589076581716, 41.722589261337212 ], [ -87.565630650687055, 41.723888354933869 ], [ -87.587374316006603, 41.723256356678093 ], [ -87.595347408997299, 41.736782372394735 ], [ -87.565700625029692, 41.737197718754167 ], [ -87.54567696316127, 41.722820577410126 ] ] ] } },
{ "type": "Feature", "properties": { "key": "chicago-49" }, "geometry": { "type": "Polygon", "coordinates": [ [ [ -87.604491693382769, 41.72254809361332 ], [ -87.604481612438647, 41.722044323975048 ], [ -87.603182240480038, 41.722048348783012 ], [ -87.611395467381882, 41.685442349004859 ], [ -87.642152046513985, 41.685082119670845 ], [ -87.642833969294969, 41.706917087516139 ], [ -87.633132513435754, 41.707042659962397 ], [ -87.633962984394088, 41.739474264597362 ], [ -87.632720518726117, 41.735972319665123 ], [ -87.625671405749841, 41.729019300802179 ], [ -87.619176724545781, 41.729119466261189 ], [ -87.619190161062747, 41.729541265665489 ], [ -87.617346337945648, 41.729052283608262 ], [ -87.614301055466285, 41.727888892615844 ], [ -87.614272765728401, 41.726933769249825 ], [ -87.604491693382769, 41.72254809361332 ] ] ] } },
{ "type": "Feature", "properties": { "key": "chicago-50" }, "geometry": { "type": "Polygon", "coordinates": [ [ [ -87.601570128059592, 41.686209354986545 ], [ -87.604416717818268, 41.685512031979599 ], [ -87.611438513803449, 41.685724745945791 ], [ -87.603182240480038, 41.722048348783012 ], [ -87.586703789677344, 41.722321554678793 ], [ -87.584963080882517, 41.720684693552698 ], [ -87.58462819265236, 41.711250086476056 ], [ -87.585086454929325, 41.709012773133047 ], [ -87.585745716938163, 41.707774260639582 ], [ -87.587299785383266, 41.707746554805489 ], [ -87.588142613996283, 41.705112179706219 ], [ -87.594365527822191, 41.698975843512898 ], [ -87.601570128059592, 41.686209354986545 ] ] ] } },
{ "type": "Feature", "properties": { "key": "chicago-51" }, "geometry": { "type": "Polygon", "coordinates": [ [ [ -87.565589076581716, 41.722589261337212 ], [ -87.543144299350672, 41.722861752052104 ], [ -87.542692435773702, 41.720816097047681 ], [ -87.543153461736637, 41.717941343417152 ], [ -87.542180356221323, 41.715643063415079 ], [ -87.54272558224919, 41.710753866569114 ], [ -87.545855968687064, 41.707332642077802 ], [ -87.545904806031729, 41.702767271634926 ], [ -87.543795734776793, 41.702762718971059 ], [ -87.545204877565752, 41.700309895645418 ], [ -87.544919119878685, 41.673183683554377 ], [ -87.546452490931244, 41.668136038545406 ], [ -87.544710340271749, 41.659222227322978 ], [ -87.552020039308175, 41.663463708493232 ], [ -87.55659704818693, 41.669968625442209 ], [ -87.559259479884133, 41.668651720207755 ], [ -87.559286173609806, 41.659189334966811 ], [ -87.581588587150506, 41.659221592491029 ], [ -87.588999682136659, 41.660391635733525 ], [ -87.601025875632743, 41.67434279468366 ], [ -87.601723082037864, 41.676726546295384 ], [ -87.601935803065146, 41.684741588407711 ], [ -87.600693887914161, 41.687961057566611 ], [ -87.594365527822191, 41.698975843512898 ], [ -87.588142613996283, 41.705112179706219 ], [ -87.587299785383266, 41.707746554805489 ], [ -87.585745716938163, 41.707774260639582 ], [ -87.585086454929325, 41.709012773133047 ], [ -87.58462819265236, 41.711250086476056 ], [ -87.584963080882517, 41.720684693552698 ], [ -87.587374316006603, 41.723256356678093 ], [ -87.565630650687055, 41.723888354933869 ], [ -87.565589076581716, 41.722589261337212 ] ] ] } },
{ "type": "Feature", "properties": { "key": "chicago-52" }, "geometry": { "type": "Polygon", "coordinates": [ [ [ -87.524620149763436, 41.691800770118441 ], [ -87.530364164450418, 41.691826316054275 ], [ -87.530413740536275, 41.684566226137143 ], [ -87.540129671720138, 41.684506771265596 ], [ -87.540117092161651, 41.682775794916736 ], [ -87.545078494245942, 41.682770385881184 ], [ -87.545204877565752, 41.700309895645418 ], [ -87.543795734776793, 41.702762718971059 ], [ -87.545904806031729, 41.702767271634926 ], [ -87.545855968687064, 41.707332642077802 ], [ -87.54267351452043, 41.71095008371659 ], [ -87.542180356221323, 41.715643063415079 ], [ -87.543153461736637, 41.717941343417152 ], [ -87.542692435773702, 41.720816097047681 ], [ -87.543176794200107, 41.72312583440781 ], [ -87.542251776078672, 41.726579199853745 ], [ -87.539413956346266, 41.72879354624601 ], [ -87.529251009959509, 41.733013567944688 ], [ -87.529135361814866, 41.732087026755678 ], [ -87.524688412171002, 41.731093499044164 ], [ -87.524466755190502, 41.721897793907644 ], [ -87.525408101353449, 41.720920004987526 ], [ -87.525608632512842, 41.719435507691571 ], [ -87.524468430690249, 41.717403337888271 ], [ -87.526605126989253, 41.717236190917539 ], [ -87.528704254315855, 41.71542292207409 ], [ -87.526486077231809, 41.712354981192121 ], [ -87.525167015893501, 41.713327141994142 ], [ -87.528408006769766, 41.710803100159652 ], [ -87.526648381473592, 41.709849267855411 ], [ -87.525750403501092, 41.710411088730424 ], [ -87.524139601617591, 41.709360156198414 ], [ -87.525529600572568, 41.70993702105887 ], [ -87.526220206433294, 41.709539447310348 ], [ -87.5252609477579, 41.709473401068642 ], [ -87.52567873937393, 41.709085026245361 ], [ -87.524862246033081, 41.709153381208345 ], [ -87.524535407865116, 41.708482291167051 ], [ -87.524620149763436, 41.691800770118441 ] ] ] } },
{ "type": "Feature", "properties": { "key": "chicago-53" }, "geometry": { "type": "Polygon", "coordinates": [ [ [ -87.618281278170059, 41.659106860235156 ], [ -87.619684145704767, 41.659062476996411 ], [ -87.619857209267963, 41.661141428959645 ], [ -87.622035294909324, 41.662414206220994 ], [ -87.623286148529601, 41.662396857228579 ], [ -87.626274492201802, 41.661662011755993 ], [ -87.631075393312116, 41.657832737158031 ], [ -87.635560093982292, 41.657345477199748 ], [ -87.641061611649363, 41.658096237751863 ], [ -87.646988464844924, 41.65763048870722 ], [ -87.647216786670469, 41.663159408389106 ], [ -87.641420933844699, 41.663245112504711 ], [ -87.641665031227745, 41.670539538941604 ], [ -87.661150043230137, 41.670335131513134 ], [ -87.661598765160321, 41.684820342048305 ], [ -87.612279162681531, 41.685433883167434 ], [ -87.618281278170059, 41.659106860235156 ] ] ] } },
{ "type": "Feature", "properties": { "key": "chicago-54" }, "geometry": { "type": "Polygon", "coordinates": [ [ [ -87.601570128059592, 41.686209354986545 ], [ -87.601732728979002, 41.676896097954 ], [ -87.60090843100123, 41.674128123216256 ], [ -87.580559313993916, 41.650519917907282 ], [ -87.578877794890829, 41.647379814577661 ], [ -87.578377070191422, 41.644694638509506 ], [ -87.617215713640192, 41.64458401911299 ], [ -87.617229979331427, 41.650275603732851 ], [ -87.620316401212605, 41.650886482885596 ], [ -87.6184817908415, 41.65555297406538 ], [ -87.617709574321808, 41.659104962149044 ], [ -87.618281278170059, 41.659106860235156 ], [ -87.612279162681531, 41.685433883167434 ], [ -87.604416717818268, 41.685512031979599 ], [ -87.601570128059592, 41.686209354986545 ] ] ] } },
{ "type": "Feature", "properties": { "key": "chicago-55" }, "geometry": { "type": "Polygon", "coordinates": [ [ [ -87.524620149763436, 41.691800770118441 ], [ -87.525165870548818, 41.644543121506054 ], [ -87.578377070191422, 41.644694638509506 ], [ -87.5797920944743, 41.649405103742239 ], [ -87.588999682136659, 41.660391635733525 ], [ -87.581588587150506, 41.659221592491029 ], [ -87.559286173609806, 41.659189334966811 ], [ -87.559259479884133, 41.668651720207755 ], [ -87.55659704818693, 41.669968625442209 ], [ -87.552020039308175, 41.663463708493232 ], [ -87.544710340271749, 41.659222227322978 ], [ -87.546452490931244, 41.668136038545406 ], [ -87.544919119878685, 41.673183683554377 ], [ -87.545078494245942, 41.682770385881184 ], [ -87.540117092161651, 41.682775794916736 ], [ -87.540129671720138, 41.684506771265596 ], [ -87.530413740536275, 41.684566226137143 ], [ -87.530364164450418, 41.691826316054275 ], [ -87.524620149763436, 41.691800770118441 ] ] ] } },
{ "type": "Feature", "properties": { "key": "chicago-56" }, "geometry": { "type": "Polygon", "coordinates": [ [ [ -87.738649251014195, 41.822117600250941 ], [ -87.73762325643321, 41.785783191923649 ], [ -87.801216158849371, 41.784688432488011 ], [ -87.801626059786614, 41.797995167280035 ], [ -87.797187007872736, 41.799401976362546 ], [ -87.752736120324627, 41.800187142657485 ], [ -87.753077040360822, 41.8133103362862 ], [ -87.744654919320297, 41.815963219292669 ], [ -87.74476347919753, 41.822031843072196 ], [ -87.738649251014195, 41.822117600250941 ] ] ] } },
{ "type": "Feature", "properties": { "key": "chicago-57" }, "geometry": { "type": "Polygon", "coordinates": [ [ [ -87.714369347366983, 41.826040562838926 ], [ -87.713789461686105, 41.806022753406261 ], [ -87.714369105862218, 41.804585396845802 ], [ -87.715227552310409, 41.803755070695388 ], [ -87.728207886007297, 41.79831029778461 ], [ -87.728168186707649, 41.79683084332062 ], [ -87.735512486605771, 41.796755311640084 ], [ -87.735412052924005, 41.795464385225017 ], [ -87.737905108094509, 41.795290379422198 ], [ -87.738556581432221, 41.818706144260389 ], [ -87.714369347366983, 41.826040562838926 ] ] ] } },
{ "type": "Feature", "properties": { "key": "chicago-58" }, "geometry": { "type": "Polygon", "coordinates": [ [ [ -87.684239727117244, 41.822999792424476 ], [ -87.683873703450473, 41.808417350676152 ], [ -87.684425355900018, 41.808425750750629 ], [ -87.68436794531037, 41.804554647174186 ], [ -87.713776312351044, 41.803928037996556 ], [ -87.714369347366983, 41.826040562838926 ], [ -87.704577726306226, 41.829115533404625 ], [ -87.704607440339942, 41.829798178821456 ], [ -87.68739948177965, 41.834800982012965 ], [ -87.687357510231095, 41.826622436086019 ], [ -87.686109576339021, 41.825226365123974 ], [ -87.686667556118266, 41.824885968526367 ], [ -87.686080305410584, 41.822955608773 ], [ -87.684239727117244, 41.822999792424476 ] ] ] } },
{ "type": "Feature", "properties": { "key": "chicago-59" }, "geometry": { "type": "Polygon", "coordinates": [ [ [ -87.656112321310431, 41.823313665521695 ], [ -87.686080305410584, 41.822955608773 ], [ -87.686667556118266, 41.824885968526367 ], [ -87.686109576339021, 41.825226365123974 ], [ -87.687357510231095, 41.826622436086019 ], [ -87.68745140832732, 41.834692495077284 ], [ -87.679661431350723, 41.837102034154604 ], [ -87.668242561500023, 41.837322103844137 ], [ -87.664285117881619, 41.839065031441905 ], [ -87.662486580265778, 41.836141334386539 ], [ -87.657429705313177, 41.831197337410259 ], [ -87.657137493459018, 41.824036641962145 ], [ -87.656112321310431, 41.823313665521695 ] ] ] } },
{ "type": "Feature", "properties": { "key": "chicago-60" }, "geometry": { "type": "Polygon", "coordinates": [ [ [ -87.633963923073921, 41.823613287045674 ], [ -87.656112321310431, 41.823313665521695 ], [ -87.657137493459018, 41.824036641962145 ], [ -87.657429705313177, 41.831197337410259 ], [ -87.663077940949208, 41.836822757607862 ], [ -87.664537556984087, 41.839555195845094 ], [ -87.664968968614573, 41.841618868764307 ], [ -87.663777676229927, 41.84429156558668 ], [ -87.658604633881367, 41.847264845351823 ], [ -87.645850347942343, 41.849384301381107 ], [ -87.64399883446832, 41.84950523850744 ], [ -87.64323272035935, 41.84852246965923 ], [ -87.642248233538595, 41.848925553310465 ], [ -87.641623658157783, 41.848192778426046 ], [ -87.642425910545313, 41.848109542310276 ], [ -87.641600072359068, 41.84630055170129 ], [ -87.638357832000636, 41.846182556010298 ], [ -87.638291489565773, 41.843616780689182 ], [ -87.636512039002326, 41.843642687757836 ], [ -87.636430642090716, 41.836354054793361 ], [ -87.635932016636289, 41.836359626084047 ], [ -87.635889697586805, 41.834534842178947 ], [ -87.63657613686064, 41.834146788889413 ], [ -87.636403841950539, 41.827230909404506 ], [ -87.636063744204989, 41.82521045157457 ], [ -87.633963923073921, 41.823613287045674 ] ] ] } },
{ "type": "Feature", "properties": { "key": "chicago-61" }, "geometry": { "type": "Polygon", "coordinates": [ [ [ -87.635457499123632, 41.794476047781181 ], [ -87.678815003959187, 41.793867854001363 ], [ -87.679413108197153, 41.797034302369241 ], [ -87.679406510950301, 41.804852516387349 ], [ -87.68437225764859, 41.804722405623565 ], [ -87.684425355900018, 41.808425750750629 ], [ -87.683873703450473, 41.808417350676152 ], [ -87.684239727117244, 41.822999792424476 ], [ -87.636117879671048, 41.823585779024796 ], [ -87.6357157455585, 41.816352683070811 ], [ -87.636161982008915, 41.81634669598548 ], [ -87.636379596322797, 41.810908389782568 ], [ -87.635861546934734, 41.810918405600589 ], [ -87.635457499123632, 41.794476047781181 ] ] ] } },
{ "type": "Feature", "properties": { "key": "chicago-62" }, "geometry": { "type": "Polygon", "coordinates": [ [ [ -87.713789461686105, 41.806022753406261 ], [ -87.713374872741241, 41.786088576000083 ], [ -87.73762325643321, 41.785783191923649 ], [ -87.737905108094509, 41.795290379422198 ], [ -87.735412052924005, 41.795464385225017 ], [ -87.735512486605771, 41.796755311640084 ], [ -87.728168186707649, 41.79683084332062 ], [ -87.728207886007297, 41.79831029778461 ], [ -87.715227552310409, 41.803755070695388 ], [ -87.713789461686105, 41.806022753406261 ] ] ] } },
{ "type": "Feature", "properties": { "key": "chicago-63" }, "geometry": { "type": "Polygon", "coordinates": [ [ [ -87.678815003959187, 41.793867854001363 ], [ -87.679372321926778, 41.793494483550958 ], [ -87.6796718667824, 41.786557245369842 ], [ -87.713374872741241, 41.786088576000083 ], [ -87.713776312351044, 41.803928037996556 ], [ -87.679406510950301, 41.804852516387349 ], [ -87.679413108197153, 41.797034302369241 ], [ -87.678815003959187, 41.793867854001363 ] ] ] } },
{ "type": "Feature", "properties": { "key": "chicago-64" }, "geometry": { "type": "Polygon", "coordinates": [ [ [ -87.73762325643321, 41.785783191923649 ], [ -87.737176028430881, 41.771202109731036 ], [ -87.742054538543286, 41.771128720250715 ], [ -87.742165372264111, 41.774780220155904 ], [ -87.800805668702594, 41.773697478683715 ], [ -87.801216158849371, 41.784688432488011 ], [ -87.73762325643321, 41.785783191923649 ] ] ] } },
{ "type": "Feature", "properties": { "key": "chicago-65" }, "geometry": { "type": "Polygon", "coordinates": [ [ [ -87.712547755618857, 41.757337333037327 ], [ -87.722286747431198, 41.761469633818301 ], [ -87.722036285174809, 41.753374092397451 ], [ -87.741495634106769, 41.753291549169745 ], [ -87.742054538543286, 41.771128720250715 ], [ -87.737176028430881, 41.771202109731036 ], [ -87.73762325643321, 41.785783191923649 ], [ -87.712896728051462, 41.786096621693552 ], [ -87.712547755618857, 41.757337333037327 ] ] ] } },
{ "type": "Feature", "properties": { "key": "chicago-66" }, "geometry": { "type": "Polygon", "coordinates": [ [ [ -87.678151317002587, 41.757659521100578 ], [ -87.712547755618857, 41.757337333037327 ], [ -87.712896728051462, 41.786096621693552 ], [ -87.679123325198447, 41.786564072880324 ], [ -87.678151317002587, 41.757659521100578 ] ] ] } },
{ "type": "Feature", "properties": { "key": "chicago-67" }, "geometry": { "type": "Polygon", "coordinates": [ [ [ -87.65487424668116, 41.794171879505768 ], [ -87.653930851181258, 41.75792817731827 ], [ -87.678151317002587, 41.757659521100578 ], [ -87.678485236004633, 41.779247346026438 ], [ -87.679123325198447, 41.786564072880324 ], [ -87.6796718667824, 41.786557245369842 ], [ -87.679372321926778, 41.793494483550958 ], [ -87.65487424668116, 41.794171879505768 ] ] ] } },
{ "type": "Feature", "properties": { "key": "chicago-68" }, "geometry": { "type": "Polygon", "coordinates": [ [ [ -87.628262591871575, 41.783160302153831 ], [ -87.628969962462733, 41.783147442369923 ], [ -87.6285426889131, 41.780004791697536 ], [ -87.630149700939128, 41.779987029777338 ], [ -87.629955493883742, 41.772708995718062 ], [ -87.631038811512283, 41.772694872405353 ], [ -87.631358910263856, 41.769057363583038 ], [ -87.633546286752136, 41.769014673704007 ], [ -87.633537339214072, 41.767193670088453 ], [ -87.634711767396951, 41.767171100188492 ], [ -87.634530479686973, 41.759900210152658 ], [ -87.635746921031853, 41.759880303785643 ], [ -87.635701709069565, 41.758057562336319 ], [ -87.639273525513929, 41.757979072729299 ], [ -87.639334853859609, 41.756157037529647 ], [ -87.644083524345021, 41.756077206663321 ], [ -87.644235225147739, 41.758143752989589 ], [ -87.653932813365145, 41.757999458998533 ], [ -87.65487424668116, 41.794171879505768 ], [ -87.62855540676513, 41.794599284530136 ], [ -87.628262591871575, 41.783160302153831 ] ] ] } },
{ "type": "Feature", "properties": { "key": "chicago-69" }, "geometry": { "type": "Polygon", "coordinates": [ [ [ -87.615622330437745, 41.780239137635192 ], [ -87.615449799983423, 41.772969770533749 ], [ -87.605587164226392, 41.765868563249143 ], [ -87.605768753914774, 41.773140860891743 ], [ -87.592098569003113, 41.773275462170879 ], [ -87.592751962182319, 41.770153551386244 ], [ -87.592281804034869, 41.766011570053614 ], [ -87.593299460950917, 41.766005405977296 ], [ -87.593324114692408, 41.76235443980552 ], [ -87.594582111260436, 41.762346293311417 ], [ -87.595630371388651, 41.758695854376214 ], [ -87.593061934719785, 41.756881788630317 ], [ -87.595797936648651, 41.756858239028432 ], [ -87.596216096927208, 41.755026286099465 ], [ -87.59559556885138, 41.755032182251668 ], [ -87.595490623944102, 41.751386642624261 ], [ -87.639758602235062, 41.750704657452985 ], [ -87.639900057792573, 41.7561457824294 ], [ -87.639334853859609, 41.756157037529647 ], [ -87.639273525513929, 41.757979072729299 ], [ -87.635701709069565, 41.758057562336319 ], [ -87.635746921031853, 41.759880303785643 ], [ -87.634530479686973, 41.759900210152658 ], [ -87.634711767396951, 41.767171100188492 ], [ -87.633537339214072, 41.767193670088453 ], [ -87.633546286752136, 41.769014673704007 ], [ -87.631358910263856, 41.769057363583038 ], [ -87.631038811512283, 41.772694872405353 ], [ -87.629955493883742, 41.772708995718062 ], [ -87.630149700939128, 41.779987029777338 ], [ -87.6285426889131, 41.780004791697536 ], [ -87.628969962462733, 41.783147442369923 ], [ -87.625404065848713, 41.783209976737233 ], [ -87.625374849104503, 41.78005828551585 ], [ -87.615622330437745, 41.780239137635192 ] ] ] } },
{ "type": "Feature", "properties": { "key": "chicago-70" }, "geometry": { "type": "Polygon", "coordinates": [ [ [ -87.712547755618857, 41.757337333037327 ], [ -87.678587983821572, 41.757653434420845 ], [ -87.677890202320398, 41.742542907699516 ], [ -87.676888815429422, 41.740111383939471 ], [ -87.672785022525574, 41.735654381283354 ], [ -87.741067283365069, 41.734523556768195 ], [ -87.741495634106769, 41.753291549169745 ], [ -87.722036285174809, 41.753374092397451 ], [ -87.722286747431198, 41.761469633818301 ], [ -87.712547755618857, 41.757337333037327 ] ] ] } },
{ "type": "Feature", "properties": { "key": "chicago-71" }, "geometry": { "type": "Polygon", "coordinates": [ [ [ -87.639900057792573, 41.7561457824294 ], [ -87.639190142173774, 41.743434069869387 ], [ -87.63647723151395, 41.743517838555938 ], [ -87.635945528884008, 41.744162165735005 ], [ -87.634107819635474, 41.743498092382168 ], [ -87.633733835149869, 41.728852724508151 ], [ -87.644615425808212, 41.728700618010116 ], [ -87.644681208922464, 41.729835457003759 ], [ -87.645183111645835, 41.729835376563464 ], [ -87.64795136679183, 41.728700338255308 ], [ -87.64651275538084, 41.732526589942367 ], [ -87.66538724145704, 41.732085579622719 ], [ -87.665330970186503, 41.730237221857088 ], [ -87.668116631889433, 41.730200613158949 ], [ -87.677570792333796, 41.741530739562066 ], [ -87.678587983821572, 41.757653434420845 ], [ -87.644235225147739, 41.758143752989589 ], [ -87.644183686411779, 41.756088416144401 ], [ -87.639900057792573, 41.7561457824294 ] ] ] } },
{ "type": "Feature", "properties": { "key": "chicago-72" }, "geometry": { "type": "Polygon", "coordinates": [ [ [ -87.673082555942187, 41.735656724178803 ], [ -87.667247023394722, 41.728850640575537 ], [ -87.661065844379735, 41.715689811579878 ], [ -87.656019245633786, 41.706785498304953 ], [ -87.658741672269798, 41.699443589598189 ], [ -87.696148147532668, 41.698940574787059 ], [ -87.696459613758222, 41.70714491233857 ], [ -87.691519391581195, 41.707203131937284 ], [ -87.691728816112004, 41.713565678289953 ], [ -87.68184169149319, 41.71366175592933 ], [ -87.682514047187112, 41.735527283787945 ], [ -87.673082555942187, 41.735656724178803 ] ] ] } },
{ "type": "Feature", "properties": { "key": "chicago-73" }, "geometry": { "type": "Polygon", "coordinates": [ [ [ -87.633733835149869, 41.728852724508151 ], [ -87.633132513435754, 41.707042659962397 ], [ -87.642833969294969, 41.706917087516139 ], [ -87.642608034341521, 41.699640945349614 ], [ -87.658741672269798, 41.699443589598189 ], [ -87.656019245633786, 41.706785498304953 ], [ -87.668116631889433, 41.730200613158949 ], [ -87.665330970186503, 41.730237221857088 ], [ -87.66538724145704, 41.732085579622719 ], [ -87.64651275538084, 41.732526589942367 ], [ -87.64795136679183, 41.728700338255308 ], [ -87.645183111645835, 41.729835376563464 ], [ -87.644681208922464, 41.729835457003759 ], [ -87.644615425808212, 41.728700618010116 ], [ -87.633733835149869, 41.728852724508151 ] ] ] } },
{ "type": "Feature", "properties": { "key": "chicago-74" }, "geometry": { "type": "Polygon", "coordinates": [ [ [ -87.696459613758222, 41.70714491233857 ], [ -87.69576593651081, 41.688075575872894 ], [ -87.699473347028459, 41.687933345468565 ], [ -87.699397777901282, 41.686147407034504 ], [ -87.70062407850898, 41.686136298894311 ], [ -87.700552741053173, 41.684262784586011 ], [ -87.705417064633366, 41.684187292019928 ], [ -87.705284959792309, 41.680578859752693 ], [ -87.711356712222866, 41.68044105746214 ], [ -87.711507303800005, 41.684093588307434 ], [ -87.7394497123733, 41.683632010319059 ], [ -87.739739008823648, 41.690859909875407 ], [ -87.720316967229166, 41.691284865457007 ], [ -87.721125107092647, 41.713169910137886 ], [ -87.712577623903925, 41.713297469504852 ], [ -87.712524740684302, 41.711473771427045 ], [ -87.711297970790156, 41.711491231540855 ], [ -87.711123541136971, 41.706073722584364 ], [ -87.701324886148242, 41.706178242029345 ], [ -87.701374744432471, 41.707051706712804 ], [ -87.696459613758222, 41.70714491233857 ] ] ] } },
{ "type": "Feature", "properties": { "key": "chicago-75" }, "geometry": { "type": "Polygon", "coordinates": [ [ [ -87.642152046513985, 41.685082119670845 ], [ -87.661598765160321, 41.684820342048305 ], [ -87.661365058119273, 41.677544267486745 ], [ -87.66677140861276, 41.677437664560223 ], [ -87.667315781610085, 41.67596305545473 ], [ -87.668404177261394, 41.676188235817811 ], [ -87.667950692721234, 41.677417146321162 ], [ -87.686205162291458, 41.677208258907044 ], [ -87.685580129856845, 41.679146195433404 ], [ -87.685721957380693, 41.684475295714584 ], [ -87.695625415558467, 41.684333220394471 ], [ -87.695916774538446, 41.691624850880594 ], [ -87.691008903220407, 41.692283434760938 ], [ -87.691237969080959, 41.698981849931933 ], [ -87.642608034341521, 41.699640945349614 ], [ -87.642152046513985, 41.685082119670845 ] ] ] } },
{ "type": "Feature", "properties": { "key": "chicago-76" }, "geometry": { "type": "MultiPolygon", "coordinates": [ [ [ [ -87.836580878743646, 41.986396111591276 ], [ -87.836630747145705, 41.974770880369711 ], [ -87.841556800036173, 41.974385398176402 ], [ -87.841550365198856, 41.97378788751228 ], [ -87.83793390092427, 41.973843704083691 ], [ -87.837951302365383, 41.971346710125083 ], [ -87.836648909262166, 41.971366231395464 ], [ -87.83665028725369, 41.970232492277937 ], [ -87.841589074741123, 41.970143357326819 ], [ -87.841575118937328, 41.971975236716112 ], [ -87.846533540782772, 41.971889878044102 ], [ -87.846570353366829, 41.96640703560449 ], [ -87.836682072241871, 41.966597154580036 ], [ -87.836432948514627, 41.944760729826378 ], [ -87.835120859003695, 41.94466766775956 ], [ -87.834810170938383, 41.937576421607091 ], [ -87.849620552606723, 41.937285353454591 ], [ -87.851806093629349, 41.939169670591198 ], [ -87.854975887802752, 41.948033979361689 ], [ -87.854935710704936, 41.949484160469581 ], [ -87.854072555725821, 41.951448552382018 ], [ -87.846612434614897, 41.951639176281624 ], [ -87.846604726000265, 41.955686812438259 ], [ -87.858078782535415, 41.955444599388649 ], [ -87.858523367870276, 41.956005051887033 ], [ -87.858718145535093, 41.957541247982981 ], [ -87.855820084441078, 41.962414651270549 ], [ -87.854867290523003, 41.966358512820243 ], [ -87.855028533227497, 41.968707709869136 ], [ -87.85413499526328, 41.971168176158429 ], [ -87.855361927110252, 41.972517158701876 ], [ -87.858922102263733, 41.971421535448947 ], [ -87.861902191949682, 41.973320676784965 ], [ -87.880772747372703, 41.97285455097844 ], [ -87.880788443626258, 41.957200453739354 ], [ -87.892899105436015, 41.958050563913751 ], [ -87.892877305067145, 41.950793772022081 ], [ -87.903776317354968, 41.950617994376152 ], [ -87.91229803534668, 41.952371439764569 ], [ -87.912281762918553, 41.951432596639812 ], [ -87.914731200336334, 41.952026160962681 ], [ -87.915227788707412, 41.956844760543675 ], [ -87.920000058801378, 41.95815125460576 ], [ -87.922170744862271, 41.958383514289103 ], [ -87.922168693994251, 41.95387269768235 ], [ -87.926352935916682, 41.954864082748891 ], [ -87.926356943068981, 41.95901683953651 ], [ -87.93208233539336, 41.959942029580247 ], [ -87.932254267832988, 41.96479938886381 ], [ -87.93477092898334, 41.964799892801963 ], [ -87.934763824273276, 41.966824634188832 ], [ -87.938126437395425, 41.964279470716946 ], [ -87.939718076049232, 41.964284938612316 ], [ -87.939930425045276, 41.993491403992387 ], [ -87.938800966791362, 41.993532626628713 ], [ -87.937615460431161, 41.997031211687762 ], [ -87.935524732175622, 42.00004039068039 ], [ -87.930402720118181, 42.004126332002166 ], [ -87.930362561148172, 42.00220648566664 ], [ -87.925463156951992, 42.002260087043865 ], [ -87.925445301694808, 42.001045199409269 ], [ -87.920515895837696, 42.001131072675399 ], [ -87.920510825941705, 42.004953430141789 ], [ -87.913770839236605, 42.005074690809948 ], [ -87.913770389528821, 42.008704538140513 ], [ -87.913309903015559, 42.008720982824606 ], [ -87.913027168123534, 42.005088052380785 ], [ -87.907673546426878, 42.005248673490762 ], [ -87.907680482018321, 42.008921806453102 ], [ -87.905750351978028, 42.008990596003351 ], [ -87.895983393786025, 42.005646600352982 ], [ -87.894294647360852, 42.005702172438014 ], [ -87.894346206606357, 42.002707648312089 ], [ -87.893546763822684, 42.002736982195863 ], [ -87.893264746279669, 42.003941551937295 ], [ -87.891889562341532, 42.00398670187559 ], [ -87.889996822552774, 42.003226727296067 ], [ -87.890385492655966, 42.002300095131666 ], [ -87.899236218672399, 42.001899176998933 ], [ -87.902404357667919, 42.004026999672654 ], [ -87.904062375128035, 42.003560441975061 ], [ -87.899542773096343, 42.001476697088997 ], [ -87.897440961891832, 42.001546243012982 ], [ -87.89745824030787, 42.000532194409935 ], [ -87.884960484209529, 41.998463120792941 ], [ -87.884542873927899, 41.99509891827703 ], [ -87.880354838602258, 41.995229851625169 ], [ -87.876910930877429, 41.985668604373323 ], [ -87.875857047678139, 41.98570134619797 ], [ -87.875862997644788, 41.982938503373504 ], [ -87.873730641917049, 41.976656999951231 ], [ -87.875882741217424, 41.976603466339718 ], [ -87.87589258616309, 41.973881413373718 ], [ -87.862008646444139, 41.973863526123239 ], [ -87.861244542545279, 41.976001181000981 ], [ -87.855877171485261, 41.981098578870267 ], [ -87.856648387666979, 41.984432262447143 ], [ -87.855537470021986, 41.987942724284416 ], [ -87.855835227296907, 41.989052097864871 ], [ -87.836580878743646, 41.986396111591276 ] ] ], [ [ [ -87.940012719987081, 41.998108137591927 ], [ -87.940114082523493, 42.000789318266371 ], [ -87.935143859419739, 42.000889116347651 ], [ -87.937079509264592, 41.998585741964575 ], [ -87.940012719987081, 41.998108137591927 ] ] ], [ [ [ -87.933580362079255, 42.008173526337501 ], [ -87.933612695999059, 42.004881553184575 ], [ -87.934373248311815, 42.004983113663997 ], [ -87.934302627038221, 42.001963225076295 ], [ -87.933889151925584, 42.001971778686311 ], [ -87.935094734563094, 42.000937858570708 ], [ -87.935287531929191, 42.008151433683132 ], [ -87.933580362079255, 42.008173526337501 ] ] ] ] } },
{ "type": "Feature", "properties": { "key": "chicago-77" }, "geometry": { "type": "Polygon", "coordinates": [ [ [ -87.65455590025104, 41.99816614970252 ], [ -87.654307892737521, 41.988406233362852 ], [ -87.650976931524752, 41.985722720592669 ], [ -87.649893699199069, 41.985421604792741 ], [ -87.649351807128156, 41.986393334651183 ], [ -87.65068344969832, 41.983192254997334 ], [ -87.650475128145274, 41.979457454486798 ], [ -87.648603872439239, 41.977840019533986 ], [ -87.647290344060153, 41.977747623683456 ], [ -87.651260401704135, 41.976459969940521 ], [ -87.674407567803698, 41.976103404416754 ], [ -87.675012500289554, 41.99799274710572 ], [ -87.65455590025104, 41.99816614970252 ] ] ] } }
]
}
